{"type": "FeatureCollection", "features": [{"type": "Feature", "geometry": {"type": "MultiPolygon", "coordinates": [[[[-93.67374328743894, 29.39370654499939], [-93.777, 29.35], [-93.961, 29.348], [-94.266, 29.222], [-94.502, 29.062], [-94.9, 28.808], [-95.134, 28.597], [-95.489, 28.428], [-96.044, 28.182], [-96.147, 28.055], [-96.427, 27.94], [-96.796, 27.579], [-97.017, 27.081], [-96.876, 26.595], [-96.749, 25.948], [-97.075, 25.799], [-97.23, 25.659], [-97.68, 25.837], [-98.218, 25.934], [-98.509, 26.039], [-99.103, 26.254], [-99.357, 26.519], [-99.489, 26.804], [-99.612, 27.039], [-99.697, 27.291], [-99.724, 27.496], [-99.917, 27.637], [-100.23, 28.008], [-100.41, 28.265], [-100.596, 28.593], [-100.754, 28.844], [-100.911, 29.059], [-101.161, 29.268], [-101.45, 29.518], [-101.616, 29.594], [-101.852, 29.614], [-102.125, 29.651], [-102.3, 29.645], [-102.486, 29.578], [-102.613, 29.283], [-102.733, 29.098], [-102.962, 28.86], [-103.419, 28.868], [-104.191, 29.275], [-104.636, 29.554], [-104.879, 29.863], [-104.926, 30.211], [-105.115, 30.476], [-105.605, 30.822], [-106.064, 31.194], [-106.509, 31.409], [-106.568, 31.573], [-107.183, 31.602], [-107.745, 31.62], [-108.002, 31.623], [-108.044, 31.186], [-108.80450737058622, 31.140369557764828], [-108.73, 31.54], [-108.88, 31.89], [-109.28, 32.31], [-110.09, 32.92], [-110.92, 33.95], [-111.63, 34.63], [-111.93, 35.0], [-112.06, 35.71], [-111.69, 36.07], [-110.99, 36.34], [-109.9, 36.9], [-109.32, 37.75], [-108.67, 38.1], [-107.73, 38.11], [-107.33, 37.83], [-107.23, 36.81], [-107.01, 36.48], [-105.88, 36.07], [-104.37, 35.66], [-103.75, 35.64], [-102.8, 35.39], [-101.82, 35.1], [-100.07, 35.01], [-98.6, 35.01], [-97.2, 34.7], [-96.25, 33.96], [-95.62, 32.9], [-94.58, 31.53], [-93.84, 30.47], [-93.67374328743894, 29.393706544999393], [-93.67374328743894, 29.39370654499939]]], [[[-122.07, 43.85], [-122.73, 44.16], [-122.63, 46.73], [-122.28, 46.98], [-121.72, 47.18], [-121.07, 46.82], [-120.52, 46.04], [-120.59, 44.77], [-121.32, 43.91], [-122.07, 43.85]]], [[[-79.7775671799055, 27.104016178919817], [-79.7, 26.777], [-79.766, 26.228], [-79.812, 25.576], [-79.965, 25.158], [-80.143, 24.859], [-80.331, 24.705], [-80.48794095344299, 24.592456816281015], [-81.22, 24.94], [-81.76, 25.32], [-81.83, 25.85], [-81.51, 26.18], [-80.48, 26.67], [-80.09, 26.95], [-79.7775671799055, 27.104016178919817]]]]}, "properties": {"DN": 2, "VALID": "202604210100", "EXPIRE": "202604211200", "ISSUE": "202604210057", "VALID_ISO": "2026-04-21T01:00:00+00:00", "EXPIRE_ISO": "2026-04-21T12:00:00+00:00", "ISSUE_ISO": "2026-04-21T00:57:00+00:00", "FORECASTER": "Jewell", "LABEL": "TSTM", "LABEL2": "General Thunderstorms Risk", "stroke": "#55BB55", "fill": "#C1E9C1"}}]}