{"type": "FeatureCollection", "features": [{"type": "Feature", "geometry": {"type": "MultiPolygon", "coordinates": [[[[-90.93921929026388, 28.72306687898089], [-91.083, 28.732], [-91.315, 28.893], [-91.556, 28.983], [-91.655, 29.121], [-91.742, 29.058], [-92.079, 29.114], [-92.164, 29.181], [-92.629, 29.233], [-93.243, 29.441], [-93.588, 29.43], [-93.777, 29.35], [-93.961, 29.348], [-94.266, 29.222], [-94.502, 29.062], [-94.9, 28.808], [-95.134, 28.597], [-95.489, 28.428], [-96.044, 28.182], [-96.147, 28.055], [-96.427, 27.94], [-96.796, 27.579], [-97.017, 27.081], [-96.876, 26.595], [-96.749, 25.948], [-97.075, 25.799], [-97.23, 25.659], [-97.68, 25.837], [-98.218, 25.934], [-98.509, 26.039], [-99.103, 26.254], [-99.357, 26.519], [-99.489, 26.804], [-99.612, 27.039], [-99.697, 27.291], [-99.724, 27.496], [-99.917, 27.637], [-100.23, 28.008], [-100.41, 28.265], [-100.596, 28.593], [-100.754, 28.844], [-100.911, 29.059], [-101.161, 29.268], [-101.45, 29.518], [-101.616, 29.594], [-101.852, 29.614], [-102.125, 29.651], [-102.3, 29.645], [-102.486, 29.578], [-102.613, 29.283], [-102.733, 29.098], [-102.962, 28.86], [-103.419, 28.868], [-104.191, 29.275], [-104.636, 29.554], [-104.879, 29.863], [-104.926, 30.211], [-105.115, 30.476], [-105.29915250841482, 30.60603422022761], [-105.15, 32.02], [-106.17, 33.9], [-107.52, 35.64], [-108.89, 38.18], [-109.72, 38.76], [-111.41, 39.61], [-111.84, 40.53], [-111.62, 43.45], [-111.07, 44.37], [-110.01, 44.8], [-109.05, 44.31], [-109.19, 42.94], [-109.19, 41.84], [-108.92, 41.17], [-108.35, 40.52], [-107.71, 39.8], [-106.19, 38.69], [-104.51, 35.89], [-103.84, 34.61], [-102.3, 34.25], [-101.82, 33.77], [-101.82, 31.86], [-101.83, 31.38], [-101.72, 30.8], [-101.33, 30.28], [-100.89, 30.07], [-100.51, 30.17], [-99.84, 31.68], [-99.19, 33.31], [-97.76, 34.69], [-95.82, 35.45], [-94.31, 35.3], [-94.02, 33.57], [-93.51, 32.5], [-92.43, 30.47], [-92.04, 29.81], [-91.05, 28.82], [-90.93921929026388, 28.72306687898089]]], [[[-121.40157281881461, 35.53015367979995], [-121.467, 35.579], [-121.847, 36.021], [-122.08, 36.25], [-122.212, 36.601], [-122.153, 36.777], [-122.383, 36.915], [-122.618, 37.111], [-122.627, 37.298], [-122.761, 37.545], [-122.74, 37.709], [-122.921, 37.832], [-123.141, 37.843], [-123.226, 37.954], [-123.188, 38.138], [-123.334, 38.347], [-123.675, 38.615], [-123.958, 38.93], [-123.915, 39.033], [-124.063, 39.354], [-124.015, 39.57], [-124.094, 39.785], [-124.34, 39.985], [-124.589, 40.208], [-124.605, 40.326], [-124.647, 40.459], [-124.611, 40.573], [-124.351, 40.962], [-124.381, 41.175], [-124.28, 41.465], [-124.451, 41.687], [-124.456, 41.912], [-124.52640284513417, 42.01202780472033], [-124.3, 43.15], [-122.89, 43.93], [-121.37, 44.67], [-121.06, 45.19], [-120.95, 46.33], [-121.66, 47.56], [-122.06, 49.15], [-122.0092223721075, 49.21029843312234], [-121.576, 49.18], [-120.445, 49.201], [-119.226, 49.203], [-117.702, 49.217], [-116.063, 49.223], [-114.53, 49.22], [-114.21491309564742, 49.221444406241304], [-114.24, 46.88], [-115.62, 45.28], [-117.43, 43.79], [-119.84, 42.49], [-120.86, 41.97], [-121.69, 40.62], [-121.76, 39.84], [-120.97, 39.05], [-119.78999999999999, 38.28], [-119.16, 37.88], [-118.33, 37.9], [-117.67, 38.37], [-117.32, 39.4], [-116.47, 39.67], [-116.07, 38.88], [-115.98, 37.65], [-117.88, 36.12], [-118.4, 35.9], [-120.4, 35.65], [-121.40157281881461, 35.53015367979996], [-121.40157281881461, 35.53015367979995]]], [[[-79.61, 42.53], [-79.07, 42.35], [-78.92, 41.94], [-79.22, 41.25], [-80.13, 39.31], [-81.93, 38.54], [-84.16, 38.42], [-86.59, 38.55], [-89.02, 39.06], [-90.76, 39.45], [-93.73, 39.87], [-94.6, 40.22], [-94.73, 40.54], [-93.14, 41.08], [-90.99, 41.58], [-89.25, 42.18], [-87.12, 42.62], [-83.36, 42.75], [-82.2536447939899, 42.701261885197795], [-82.304, 42.546], [-82.518, 42.326], [-82.69, 42.224], [-82.863, 42.181], [-82.903, 42.063], [-82.863, 41.98], [-82.808, 41.911], [-82.689, 41.863], [-82.459, 41.878], [-81.764, 42.178], [-81.262, 42.421], [-80.45966470547519, 42.57281608638472], [-80.11, 42.53], [-79.61, 42.53]]]]}, "properties": {"DN": 2, "VALID": "202604211200", "EXPIRE": "202604221200", "ISSUE": "202604201724", "VALID_ISO": "2026-04-21T12:00:00+00:00", "EXPIRE_ISO": "2026-04-22T12:00:00+00:00", "ISSUE_ISO": "2026-04-20T17:24:00+00:00", "FORECASTER": "Wendt", "LABEL": "TSTM", "LABEL2": "General Thunderstorms Risk", "stroke": "#55BB55", "fill": "#C1E9C1"}}]}