{"type": "FeatureCollection", "features": [{"type": "Feature", "geometry": {"type": "MultiPolygon", "coordinates": [[[[-108.987, 49.202], [-107.292, 49.194], [-105.669, 49.171], [-103.614, 49.188], [-101.067, 49.197], [-99.664, 49.183], [-98.264, 49.18], [-96.747, 49.197], [-95.911, 49.174], [-95.453, 49.167], [-95.49, 49.561], [-94.579, 49.541], [-94.395, 48.962], [-93.805, 48.857], [-93.513, 48.786], [-93.223, 48.834], [-92.5, 48.697], [-91.94, 48.521], [-91.477, 48.338], [-90.777, 48.453], [-90.513, 48.262], [-90.1089765921429, 48.265219310022765], [-90.77, 47.78], [-92.87, 46.73], [-94.91, 45.7], [-96.08, 44.56], [-97.12, 42.77], [-97.88, 41.32], [-98.75, 39.13], [-99.32, 37.48], [-99.69, 35.91], [-99.35, 34.03], [-99.61, 32.19], [-99.99, 31.19], [-100.54607377545788, 28.50495805564617], [-100.54607377545788, 28.504958055646167], [-100.596, 28.593], [-100.754, 28.844], [-100.911, 29.059], [-101.161, 29.268], [-101.45, 29.518], [-101.616, 29.594], [-101.852, 29.614], [-102.125, 29.651], [-102.3, 29.645], [-102.486, 29.578], [-102.613, 29.283], [-102.733, 29.098], [-102.962, 28.86], [-103.37114654299029, 28.86716230272193], [-103.33, 29.23], [-103.5, 30.31], [-103.36, 30.9], [-102.31, 32.33], [-101.97, 35.84], [-102.16, 36.91], [-102.43, 38.07], [-102.65, 39.22], [-102.92, 40.14], [-103.25, 41.15], [-104.13, 42.98], [-105.68, 43.47], [-107.29, 43.48], [-108.27, 43.17], [-108.36, 42.59], [-107.76, 42.14], [-107.84, 41.1], [-109.62, 40.11], [-111.13, 39.57], [-112.31, 39.45], [-114.24, 39.67], [-115.42, 41.34], [-116.03999999999999, 44.86], [-116.65, 47.96], [-116.60523023595891, 49.22101502049069], [-116.063, 49.223], [-114.53, 49.22], [-113.003, 49.227], [-111.288, 49.211], [-109.98, 49.207], [-109.426, 49.192], [-108.987, 49.202]]], [[[-83.5, 38.04], [-86.3, 38.51], [-89.63, 39.15], [-90.89, 39.87], [-90.84, 40.47], [-89.54, 40.75], [-86.48, 40.71], [-83.45, 40.98], [-79.25, 40.06], [-78.11, 39.62], [-77.05, 38.78], [-76.86, 37.8], [-77.46, 37.05], [-80.76, 37.66], [-83.5, 38.04]]], [[[-89.33993586621204, 28.5909749959409], [-89.399, 28.577], [-89.712, 28.693], [-89.828, 28.916], [-90.102, 28.755], [-90.54, 28.711], [-90.745, 28.711], [-91.083, 28.732], [-91.315, 28.893], [-91.556, 28.983], [-91.655, 29.121], [-91.742, 29.058], [-92.079, 29.114], [-92.164, 29.181], [-92.629, 29.233], [-93.243, 29.441], [-93.588, 29.43], [-93.777, 29.35], [-93.961, 29.348], [-94.266, 29.222], [-94.502, 29.062], [-94.9, 28.808], [-95.134, 28.597], [-95.489, 28.428], [-96.044, 28.182], [-96.147, 28.055], [-96.427, 27.94], [-96.796, 27.579], [-96.95616785270997, 27.218078775341333], [-97.72, 27.93], [-97.99, 28.26], [-98.29, 28.56], [-98.66, 29.17], [-98.19, 30.54], [-96.84, 32.16], [-95.02, 33.56], [-93.7, 33.42], [-91.82, 31.09], [-90.38, 29.85], [-89.33993586621204, 28.5909749959409]]]]}, "properties": {"DN": 2, "VALID": "202604221200", "EXPIRE": "202604231200", "ISSUE": "202604201930", "VALID_ISO": "2026-04-22T12:00:00+00:00", "EXPIRE_ISO": "2026-04-23T12:00:00+00:00", "ISSUE_ISO": "2026-04-20T19:30:00+00:00", "FORECASTER": "Wendt", "LABEL": "TSTM", "LABEL2": "General Thunderstorms Risk", "stroke": "#55BB55", "fill": "#C1E9C1"}}, {"type": "Feature", "geometry": {"type": "MultiPolygon", "coordinates": [[[[-102.04, 44.29], [-101.57, 44.55], [-100.99, 44.62], [-100.43, 44.37], [-100.11, 43.92], [-99.82, 39.78], [-99.99, 35.34], [-99.97, 33.87], [-100.38, 32.32], [-101.15, 32.11], [-101.64, 32.65], [-101.6, 35.53], [-101.89, 36.37], [-102.56, 42.37], [-102.41, 43.38], [-102.04, 44.29]]]]}, "properties": {"DN": 3, "VALID": "202604221200", "EXPIRE": "202604231200", "ISSUE": "202604201930", "VALID_ISO": "2026-04-22T12:00:00+00:00", "EXPIRE_ISO": "2026-04-23T12:00:00+00:00", "ISSUE_ISO": "2026-04-20T19:30:00+00:00", "FORECASTER": "Wendt", "LABEL": "MRGL", "LABEL2": "Marginal Risk", "stroke": "#005500", "fill": "#66A366"}}]}